STARLINK-31486          
1 59181U 24045D   26068.06651491  .00000631  00000+0  32457-4 0  9997
2 59181  43.0039  92.8157 0001946 286.8405  73.2233 15.27575600113104
KUIPER-00209            
1 67776U 26030N   26068.61786546  .00035298  00000+0  11963-2 0  9997
2 67776  51.8838 220.0775 0012191  59.1967 301.0215 15.30161950  5077
